NETSAT-1                
1 46506U 20068W   26064.96192194  .00016960  00000+0  55280-3 0  9990
2 46506  97.8743  59.0235 0006288  30.7972 329.3636 15.31881118299488
NETSAT-2                
1 46507U 20068X   26065.23366785  .00026313  00000+0  63111-3 0  9996
2 46507  97.8653  65.0732 0005000  31.6806 328.4740 15.41363414299857
TIANQI-6                
1 46810U 20076D   26065.10765224  .00005456  00000+0  36424-3 0  9991
2 46810  34.9998 320.7423 0011136 336.3501  23.6695 15.06370209293027
KSM1-C                  
1 46906U 20081B   26065.16300258  .00013098  00000+0  51844-3 0  9995
2 46906  36.8949 334.1103 0001476  14.3950 345.6840 15.24823915293421
KSM1-D                  
1 46907U 20081C   26065.23343045  .00009823  00000+0  41081-3 0  9998
2 46907  36.8981 340.8301 0001977  94.2416 265.8558 15.23075880293385
KSM1-A                  
1 46912U 20081H   26065.18265347  .00011918  00000+0  48157-3 0  9995
2 46912  36.8969 335.6612 0002646 239.0302 121.0187 15.24163754293448
R2                      
1 46913U 20081J   26064.12327958  .00012300  00000+0  50354-3 0  9994
2 46913  36.8995 341.6703 0004419 125.3637 234.7524 15.23708107296091
KSM1-B                  
1 46914U 20081K   26065.15793907  .00012116  00000+0  50820-3 0  9993
2 46914  36.9033 341.6657 0003826 137.0079 223.0968 15.22898217296460
GONETS-M 20             
1 47227U 20091A   26065.29222689 -.00000036  00000+0 -32887-3 0  9994
2 47227  82.5100   6.3918 0022008  46.1671 314.1224 12.42889400238293
GONETS-M 21             
1 47228U 20091B   26065.26542279  .00000010  00000+0  14890-5 0  9998
2 47228  82.5026   5.1788 0015868  59.9193 300.3458 12.42880910238282
GONETS-M 22             
1 47229U 20091C   26065.31952765  .00000032  00000+0  15609-3 0  9991
2 47229  82.5083   5.9958 0022817  41.5580 318.7229 12.42887418238247
CUBEL                   
1 47448U 21006AM  26065.11770561  .00009923  00000+0  25753-3 0  9990
2 47448  97.2476 116.7595 0007064 172.1564 187.9794 15.39156431283894
ASTROCAST-0103          
1 47487U 21006CC  26064.75569039  .00084722  00000+0  63588-3 0  9996
2 47487  97.2639 133.9717 0005610 154.5242 205.6300 15.72329280284902
ARKTIKA-M 1             
1 47719U 21016A   26061.82287547 -.00000108  00000+0  00000+0 0  9994
2 47719  63.2036  72.8571 7242814 269.4536  15.2019  2.00620868 36653
STARLINK-2342           
1 47883U 21021Z   26065.33334491  .01046063  00000+0  29051-1 0  9992
2 47883  53.1590 283.6778 0001169 103.7879  83.7429 15.33697024  5556
GRUS-1B                 
1 47934U 21022C   26065.30088295  .00001899  00000+0  16242-3 0  9992
2 47934  97.5539 311.8077 0014662 313.6272  46.3735 14.98711888270481
2021-022F               
1 47937U 21022F   26065.25965405  .00010676  00000+0  35567-3 0  9990
2 47937  97.3993 326.1217 0012062  97.0107 263.2507 15.31221808273951
