[{"OBJECT_NAME":"NETSAT-1","OBJECT_ID":"2020-068W","EPOCH":"2026-03-05T23:05:10.055616","MEAN_MOTION":15.31881118,"ECCENTRICITY":0.00062889,"INCLINATION":97.8743,"RA_OF_ASC_NODE":59.0235,"ARG_OF_PERICENTER":30.7972,"MEAN_ANOMALY":329.3636,"EPHEMERIS_TYPE":0,"CLASSIFICATION_TYPE":"U","NORAD_CAT_ID":46506,"ELEMENT_SET_NO":999,"REV_AT_EPOCH":29948,"BSTAR":0.00055279957,"MEAN_MOTION_DOT":0.0001696,"MEAN_MOTION_DDOT":0},{"OBJECT_NAME":"NETSAT-2","OBJECT_ID":"2020-068X","EPOCH":"2026-03-06T05:36:28.902240","MEAN_MOTION":15.41363414,"ECCENTRICITY":0.00050009,"INCLINATION":97.8653,"RA_OF_ASC_NODE":65.0732,"ARG_OF_PERICENTER":31.6806,"MEAN_ANOMALY":328.474,"EPHEMERIS_TYPE":0,"CLASSIFICATION_TYPE":"U","NORAD_CAT_ID":46507,"ELEMENT_SET_NO":999,"REV_AT_EPOCH":29985,"BSTAR":0.00063111107,"MEAN_MOTION_DOT":0.00026313,"MEAN_MOTION_DDOT":0},{"OBJECT_NAME":"TIANQI-6","OBJECT_ID":"2020-076D","EPOCH":"2026-03-06T02:35:01.153536","MEAN_MOTION":15.06370209,"ECCENTRICITY":0.00111366,"INCLINATION":34.9998,"RA_OF_ASC_NODE":320.7423,"ARG_OF_PERICENTER":336.3501,"MEAN_ANOMALY":23.6695,"EPHEMERIS_TYPE":0,"CLASSIFICATION_TYPE":"U","NORAD_CAT_ID":46810,"ELEMENT_SET_NO":999,"REV_AT_EPOCH":29302,"BSTAR":0.00036424218,"MEAN_MOTION_DOT":5.456e-5,"MEAN_MOTION_DDOT":0},{"OBJECT_NAME":"KSM1-C","OBJECT_ID":"2020-081B","EPOCH":"2026-03-06T03:54:43.422912","MEAN_MOTION":15.24823915,"ECCENTRICITY":0.00014769,"INCLINATION":36.8949,"RA_OF_ASC_NODE":334.1103,"ARG_OF_PERICENTER":14.395,"MEAN_ANOMALY":345.684,"EPHEMERIS_TYPE":0,"CLASSIFICATION_TYPE":"U","NORAD_CAT_ID":46906,"ELEMENT_SET_NO":999,"REV_AT_EPOCH":29342,"BSTAR":0.00051843855,"MEAN_MOTION_DOT":0.00013098,"MEAN_MOTION_DDOT":0},{"OBJECT_NAME":"KSM1-D","OBJECT_ID":"2020-081C","EPOCH":"2026-03-06T05:36:08.390880","MEAN_MOTION":15.2307588,"ECCENTRICITY":0.00019772,"INCLINATION":36.8981,"RA_OF_ASC_NODE":340.8301,"ARG_OF_PERICENTER":94.2416,"MEAN_ANOMALY":265.8558,"EPHEMERIS_TYPE":0,"CLASSIFICATION_TYPE":"U","NORAD_CAT_ID":46907,"ELEMENT_SET_NO":999,"REV_AT_EPOCH":29338,"BSTAR":0.00041081416,"MEAN_MOTION_DOT":9.823e-5,"MEAN_MOTION_DDOT":0},{"OBJECT_NAME":"KSM1-A","OBJECT_ID":"2020-081H","EPOCH":"2026-03-06T04:23:01.259808","MEAN_MOTION":15.24163754,"ECCENTRICITY":0.00026462,"INCLINATION":36.8969,"RA_OF_ASC_NODE":335.6612,"ARG_OF_PERICENTER":239.0302,"MEAN_ANOMALY":121.0187,"EPHEMERIS_TYPE":0,"CLASSIFICATION_TYPE":"U","NORAD_CAT_ID":46912,"ELEMENT_SET_NO":999,"REV_AT_EPOCH":29344,"BSTAR":0.00048156849,"MEAN_MOTION_DOT":0.00011918,"MEAN_MOTION_DDOT":0},{"OBJECT_NAME":"R2","OBJECT_ID":"2020-081J","EPOCH":"2026-03-05T02:57:31.355712","MEAN_MOTION":15.23708107,"ECCENTRICITY":0.0004419,"INCLINATION":36.8995,"RA_OF_ASC_NODE":341.6703,"ARG_OF_PERICENTER":125.3637,"MEAN_ANOMALY":234.7524,"EPHEMERIS_TYPE":0,"CLASSIFICATION_TYPE":"U","NORAD_CAT_ID":46913,"ELEMENT_SET_NO":999,"REV_AT_EPOCH":29609,"BSTAR":0.00050354039,"MEAN_MOTION_DOT":0.000123,"MEAN_MOTION_DDOT":0},{"OBJECT_NAME":"KSM1-B","OBJECT_ID":"2020-081K","EPOCH":"2026-03-06T03:47:25.935648","MEAN_MOTION":15.22898217,"ECCENTRICITY":0.00038269,"INCLINATION":36.9033,"RA_OF_ASC_NODE":341.6657,"ARG_OF_PERICENTER":137.0079,"MEAN_ANOMALY":223.0968,"EPHEMERIS_TYPE":0,"CLASSIFICATION_TYPE":"U","NORAD_CAT_ID":46914,"ELEMENT_SET_NO":999,"REV_AT_EPOCH":29646,"BSTAR":0.000508198,"MEAN_MOTION_DOT":0.00012116,"MEAN_MOTION_DDOT":0},{"OBJECT_NAME":"GONETS-M 20","OBJECT_ID":"2020-091A","EPOCH":"2026-03-06T07:00:48.403296","MEAN_MOTION":12.428894,"ECCENTRICITY":0.0022008,"INCLINATION":82.51,"RA_OF_ASC_NODE":6.3918,"ARG_OF_PERICENTER":46.1671,"MEAN_ANOMALY":314.1224,"EPHEMERIS_TYPE":0,"CLASSIFICATION_TYPE":"U","NORAD_CAT_ID":47227,"ELEMENT_SET_NO":999,"REV_AT_EPOCH":23829,"BSTAR":-0.00032887369,"MEAN_MOTION_DOT":-3.6e-7,"MEAN_MOTION_DDOT":0},{"OBJECT_NAME":"GONETS-M 21","OBJECT_ID":"2020-091B","EPOCH":"2026-03-06T06:22:12.529056","MEAN_MOTION":12.4288091,"ECCENTRICITY":0.00158684,"INCLINATION":82.5026,"RA_OF_ASC_NODE":5.1788,"ARG_OF_PERICENTER":59.9193,"MEAN_ANOMALY":300.3458,"EPHEMERIS_TYPE":0,"CLASSIFICATION_TYPE":"U","NORAD_CAT_ID":47228,"ELEMENT_SET_NO":999,"REV_AT_EPOCH":23828,"BSTAR":1.48905e-6,"MEAN_MOTION_DOT":1.0e-7,"MEAN_MOTION_DDOT":0},{"OBJECT_NAME":"GONETS-M 22","OBJECT_ID":"2020-091C","EPOCH":"2026-03-06T07:40:07.188960","MEAN_MOTION":12.42887418,"ECCENTRICITY":0.00228175,"INCLINATION":82.5083,"RA_OF_ASC_NODE":5.9958,"ARG_OF_PERICENTER":41.558,"MEAN_ANOMALY":318.7229,"EPHEMERIS_TYPE":0,"CLASSIFICATION_TYPE":"U","NORAD_CAT_ID":47229,"ELEMENT_SET_NO":999,"REV_AT_EPOCH":23824,"BSTAR":0.000156085,"MEAN_MOTION_DOT":3.2e-7,"MEAN_MOTION_DDOT":0},{"OBJECT_NAME":"CUBEL","OBJECT_ID":"2021-006AM","EPOCH":"2026-03-06T02:49:29.764704","MEAN_MOTION":15.39156431,"ECCENTRICITY":0.00070642,"INCLINATION":97.2476,"RA_OF_ASC_NODE":116.7595,"ARG_OF_PERICENTER":172.1564,"MEAN_ANOMALY":187.9794,"EPHEMERIS_TYPE":0,"CLASSIFICATION_TYPE":"U","NORAD_CAT_ID":47448,"ELEMENT_SET_NO":999,"REV_AT_EPOCH":28389,"BSTAR":0.00025752762,"MEAN_MOTION_DOT":9.923e-5,"MEAN_MOTION_DDOT":0},{"OBJECT_NAME":"ASTROCAST-0103","OBJECT_ID":"2021-006CC","EPOCH":"2026-03-05T18:08:11.649696","MEAN_MOTION":15.7232928,"ECCENTRICITY":0.00056107,"INCLINATION":97.2639,"RA_OF_ASC_NODE":133.9717,"ARG_OF_PERICENTER":154.5242,"MEAN_ANOMALY":205.63,"EPHEMERIS_TYPE":0,"CLASSIFICATION_TYPE":"U","NORAD_CAT_ID":47487,"ELEMENT_SET_NO":999,"REV_AT_EPOCH":28490,"BSTAR":0.00063587815,"MEAN_MOTION_DOT":0.00084722,"MEAN_MOTION_DDOT":0},{"OBJECT_NAME":"ARKTIKA-M 1","OBJECT_ID":"2021-016A","EPOCH":"2026-03-02T19:44:56.440608","MEAN_MOTION":2.00620868,"ECCENTRICITY":0.72428147,"INCLINATION":63.2036,"RA_OF_ASC_NODE":72.8571,"ARG_OF_PERICENTER":269.4536,"MEAN_ANOMALY":15.2019,"EPHEMERIS_TYPE":0,"CLASSIFICATION_TYPE":"U","NORAD_CAT_ID":47719,"ELEMENT_SET_NO":999,"REV_AT_EPOCH":3665,"BSTAR":0,"MEAN_MOTION_DOT":-1.08e-6,"MEAN_MOTION_DDOT":0},{"OBJECT_NAME":"STARLINK-2342","OBJECT_ID":"2021-021Z","EPOCH":"2026-03-06T08:00:01.000224","MEAN_MOTION":15.33697024,"ECCENTRICITY":0.00011691,"INCLINATION":53.159,"RA_OF_ASC_NODE":283.6778,"ARG_OF_PERICENTER":103.7879,"MEAN_ANOMALY":83.7429,"EPHEMERIS_TYPE":0,"CLASSIFICATION_TYPE":"U","NORAD_CAT_ID":47883,"ELEMENT_SET_NO":999,"REV_AT_EPOCH":555,"BSTAR":0.029050553,"MEAN_MOTION_DOT":0.01046063,"MEAN_MOTION_DDOT":0},{"OBJECT_NAME":"GRUS-1B","OBJECT_ID":"2021-022C","EPOCH":"2026-03-06T07:13:16.286880","MEAN_MOTION":14.98711888,"ECCENTRICITY":0.00146628,"INCLINATION":97.5539,"RA_OF_ASC_NODE":311.8077,"ARG_OF_PERICENTER":313.6272,"MEAN_ANOMALY":46.3735,"EPHEMERIS_TYPE":0,"CLASSIFICATION_TYPE":"U","NORAD_CAT_ID":47934,"ELEMENT_SET_NO":999,"REV_AT_EPOCH":27048,"BSTAR":0.00016242496,"MEAN_MOTION_DOT":1.899e-5,"MEAN_MOTION_DDOT":0},{"OBJECT_NAME":"2021-022F","OBJECT_ID":"2021-022F","EPOCH":"2026-03-06T06:13:54.109920","MEAN_MOTION":15.31221808,"ECCENTRICITY":0.00120624,"INCLINATION":97.3993,"RA_OF_ASC_NODE":326.1217,"ARG_OF_PERICENTER":97.0107,"MEAN_ANOMALY":263.2507,"EPHEMERIS_TYPE":0,"CLASSIFICATION_TYPE":"U","NORAD_CAT_ID":47937,"ELEMENT_SET_NO":999,"REV_AT_EPOCH":27395,"BSTAR":0.00035567201,"MEAN_MOTION_DOT":0.00010676,"MEAN_MOTION_DDOT":0}]
